[{"OBJECT_NAME":"JILIN-1 06","OBJECT_ID":"2017-074C","EPOCH":"2026-03-09T22:46:57.173376","MEAN_MOTION":15.32444387,"ECCENTRICITY":0.00061285,"INCLINATION":97.4715,"RA_OF_ASC_NODE":171.0354,"ARG_OF_PERICENTER":223.0031,"MEAN_ANOMALY":137.0732,"EPHEMERIS_TYPE":0,"CLASSIFICATION_TYPE":"U","NORAD_CAT_ID":43024,"ELEMENT_SET_NO":999,"REV_AT_EPOCH":45863,"BSTAR":0.00028431628,"MEAN_MOTION_DOT":8.833e-5,"MEAN_MOTION_DDOT":0},{"OBJECT_NAME":"STARLINK-32140","OBJECT_ID":"2024-183C","EPOCH":"2026-03-09T11:45:13.262976","MEAN_MOTION":15.30205626,"ECCENTRICITY":0.00010196,"INCLINATION":53.1603,"RA_OF_ASC_NODE":143.2518,"ARG_OF_PERICENTER":74.1089,"MEAN_ANOMALY":286.0024,"EPHEMERIS_TYPE":0,"CLASSIFICATION_TYPE":"U","NORAD_CAT_ID":61511,"ELEMENT_SET_NO":999,"REV_AT_EPOCH":7962,"BSTAR":-6.0845062e-5,"MEAN_MOTION_DOT":-2.161e-5,"MEAN_MOTION_DDOT":0}]
